ONEWEB-0697             
1 61603U 24188K   24359.84875657  .00008105  00000+0  99416-3 0  9997
2 61603  86.5700 142.3105 0003596  53.1412 307.0140 14.83003791 12698
ONEWEB-0698             
1 61604U 24188L   24359.83417150  .00005468  00000+0  66984-3 0  9990
2 61604  86.5784 142.3443 0005389  17.5938 342.5471 14.83004547 12696
ONEWEB-0699             
1 61605U 24188M   24359.91667824  .00000017  00000+0  00000+0 0  9993
2 61605  87.2561 145.4050 0003142  36.9384 251.0208 13.90779014  5634
ONEWEB-0700             
1 61606U 24188N   24359.91667824 -.00940817  00000+0 -79767+0 0  9993
2 61606  87.2536 145.3940 0002459  36.2325 123.6567 13.90606722  5572
ONEWEB-0701             
1 61607U 24188P   24359.91667824 -.01031988  00000+0 -91835+0 0  9995
2 61607  87.2315 145.3691 0003488   5.3951 335.0511 13.88096302  5613
ONEWEB-0702             
1 61608U 24188Q   24359.83972095  .00005347  00000+0  65428-3 0  9996
2 61608  86.5804 142.3603 0005500  16.3792 343.7608 14.83041845 12698
ONEWEB-0704             
1 61609U 24188R   24359.91667824 -.00989657  00000+0 -86637+0 0  9995
2 61609  87.2478 145.4466 0003700  83.4685   5.6550 13.88909827  5612
ONEWEB-0705             
1 61610U 24188S   24359.91667824 -.01046741  00000+0 -81518+0 0  9999
2 61610  87.2971 145.3399 0006029  52.6362  10.0617 13.95832529  5686
